[
    {
        "Altitude(m)": 703263.0297228486,
        "Argument of Periapsis(deg)": 0.0,
        "Eccentricity": 0.0,
        "Inclination(deg)": 45.0,
        "Latitude(deg)": 22.545665871469417,
        "Longitude(deg)": -104.357547129489,
        "Mean Anomaly(deg)": 147.27270000000001,
        "RAAN(deg)": 200.0,
        "Satellite Name": "Constellation 1 889",
        "Satellite Number": 889,
        "Semi-Major Axis(m)": 7083131.272910544,
        "Time(s)": 0
    },
    {
        "Altitude(m)": 703258.9219172717,
        "Argument of Periapsis(deg)": 5.994800624540561e-05,
        "Eccentricity": 0.0,
        "Inclination(deg)": 45.0,
        "Latitude(deg)": 22.50633891494931,
        "Longitude(deg)": -104.31145623756348,
        "Mean Anomaly(deg)": 147.33340114024986,
        "RAAN(deg)": 199.99994341083445,
        "Satellite Name": "Constellation 1 889",
        "Satellite Number": 889,
        "Semi-Major Axis(m)": 7083131.272910544,
        "Time(s)": 1
    },
    {
        "Altitude(m)": 703254.825938305,
        "Argument of Periapsis(deg)": 0.00011989601249081122,
        "Eccentricity": 0.0,
        "Inclination(deg)": 45.0,
        "Latitude(deg)": 22.466996149451486,
        "Longitude(deg)": -104.26539373074827,
        "Mean Anomaly(deg)": 147.39410228049982,
        "RAAN(deg)": 199.99988682166887,
        "Satellite Name": "Constellation 1 889",
        "Satellite Number": 889,
        "Semi-Major Axis(m)": 7083131.272910544,
        "Time(s)": 2
    },
    {
        "Altitude(m)": 703250.7418204889,
        "Argument of Periapsis(deg)": 0.00017984401873621686,
        "Eccentricity": 0.0,
        "Inclination(deg)": 45.0,
        "Latitude(deg)": 22.42763761421168,
        "Longitude(deg)": -104.21935954931892,
        "Mean Anomaly(deg)": 147.4548034207497,
        "RAAN(deg)": 199.9998302325033,
        "Satellite Name": "Constellation 1 889",
        "Satellite Number": 889,
        "Semi-Major Axis(m)": 7083131.272910544,
        "Time(s)": 3
    },
    {
        "Altitude(m)": 703246.6695983302,
        "Argument of Periapsis(deg)": 0.00023979202498162244,
        "Eccentricity": 0.0,
        "Inclination(deg)": 45.0,
        "Latitude(deg)": 22.388263348409605,
        "Longitude(deg)": -104.17335363357128,
        "Mean Anomaly(deg)": 147.51550456099955,
        "RAAN(deg)": 199.9997736433377,
        "Satellite Name": "Constellation 1 889",
        "Satellite Number": 889,
        "Semi-Major Axis(m)": 7083131.272910544,
        "Time(s)": 4
    },
    {
        "Altitude(m)": 703242.609306293,
        "Argument of Periapsis(deg)": 0.00029974003122702807,
        "Eccentricity": 0.0,
        "Inclination(deg)": 45.0,
        "Latitude(deg)": 22.348873391169246,
        "Longitude(deg)": -104.12737592382196,
        "Mean Anomaly(deg)": 147.57620570124945,
        "RAAN(deg)": 199.99971705417215,
        "Satellite Name": "Constellation 1 889",
        "Satellite Number": 889,
        "Semi-Major Axis(m)": 7083131.272910544,
        "Time(s)": 5
    },
    {
        "Altitude(m)": 703238.5609787918,
        "Argument of Periapsis(deg)": 0.00035968803747243373,
        "Eccentricity": 0.0,
        "Inclination(deg)": 45.0,
        "Latitude(deg)": 22.309467781559096,
        "Longitude(deg)": -104.08142636040844,
        "Mean Anomaly(deg)": 147.63690684149938,
        "RAAN(deg)": 199.9996604650066,
        "Satellite Name": "Constellation 1 889",
        "Satellite Number": 889,
        "Semi-Major Axis(m)": 7083131.272910544,
        "Time(s)": 6
    },
    {
        "Altitude(m)": 703234.5246501968,
        "Argument of Periapsis(deg)": 0.00041963604371783933,
        "Eccentricity": 0.0,
        "Inclination(deg)": 45.0,
        "Latitude(deg)": 22.270046558592274,
        "Longitude(deg)": -104.03550505178632,
        "Mean Anomaly(deg)": 147.69760798174926,
        "RAAN(deg)": 199.99960387584102,
        "Satellite Name": "Constellation 1 889",
        "Satellite Number": 889,
        "Semi-Major Axis(m)": 7083131.272910544,
        "Time(s)": 7
    },
    {
        "Altitude(m)": 703230.5003548464,
        "Argument of Periapsis(deg)": 0.0004795840499632449,
        "Eccentricity": 0.0,
        "Inclination(deg)": 45.0,
        "Latitude(deg)": 22.230609761226148,
        "Longitude(deg)": -103.98961160214151,
        "Mean Anomaly(deg)": 147.7583091219992,
        "RAAN(deg)": 199.99954728667547,
        "Satellite Name": "Constellation 1 889",
        "Satellite Number": 889,
        "Semi-Major Axis(m)": 7083131.272910544,
        "Time(s)": 8
    },
    {
        "Altitude(m)": 703226.4881270254,
        "Argument of Periapsis(deg)": 0.0005395320562086505,
        "Eccentricity": 0.0,
        "Inclination(deg)": 45.0,
        "Latitude(deg)": 22.1911574283632,
        "Longitude(deg)": -103.9437461199721,
        "Mean Anomaly(deg)": 147.819010262249,
        "RAAN(deg)": 199.99949069750986,
        "Satellite Name": "Constellation 1 889",
        "Satellite Number": 889,
        "Semi-Major Axis(m)": 7083131.272910544,
        "Time(s)": 9
    },
    {
        "Altitude(m)": 703222.4880009791,
        "Argument of Periapsis(deg)": 0.0005994800624540561,
        "Eccentricity": 0.0,
        "Inclination(deg)": 45.0,
        "Latitude(deg)": 22.151689598850602,
        "Longitude(deg)": -103.89790854570079,
        "Mean Anomaly(deg)": 147.879711402499,
        "RAAN(deg)": 199.9994341083443,
        "Satellite Name": "Constellation 1 889",
        "Satellite Number": 889,
        "Semi-Major Axis(m)": 7083131.272910544,
        "Time(s)": 10
    },
    {
        "Altitude(m)": 703218.5000109072,
        "Argument of Periapsis(deg)": 0.0006594280686994618,
        "Eccentricity": 0.0,
        "Inclination(deg)": 45.0,
        "Latitude(deg)": 22.11220631148056,
        "Longitude(deg)": -103.85209881977188,
        "Mean Anomaly(deg)": 147.94041254274887,
        "RAAN(deg)": 199.99937751917875,
        "Satellite Name": "Constellation 1 889",
        "Satellite Number": 889,
        "Semi-Major Axis(m)": 7083131.272910544,
        "Time(s)": 11
    },
    {
        "Altitude(m)": 703214.5241909695,
        "Argument of Periapsis(deg)": 0.0007193760749448675,
        "Eccentricity": 0.0,
        "Inclination(deg)": 45.0,
        "Latitude(deg)": 22.07270760499035,
        "Longitude(deg)": -103.80631688265173,
        "Mean Anomaly(deg)": 148.00111368299872,
        "RAAN(deg)": 199.99932093001317,
        "Satellite Name": "Constellation 1 889",
        "Satellite Number": 889,
        "Semi-Major Axis(m)": 7083131.272910544,
        "Time(s)": 12
    },
    {
        "Altitude(m)": 703210.5605752792,
        "Argument of Periapsis(deg)": 0.000779324081190273,
        "Eccentricity": 0.0,
        "Inclination(deg)": 45.0,
        "Latitude(deg)": 22.033193518062387,
        "Longitude(deg)": -103.76056267482844,
        "Mean Anomaly(deg)": 148.0618148232487,
        "RAAN(deg)": 199.99926434084762,
        "Satellite Name": "Constellation 1 889",
        "Satellite Number": 889,
        "Semi-Major Axis(m)": 7083131.272910544,
        "Time(s)": 13
    },
    {
        "Altitude(m)": 703206.6091979031,
        "Argument of Periapsis(deg)": 0.0008392720874356787,
        "Eccentricity": 0.0,
        "Inclination(deg)": 45.0,
        "Latitude(deg)": 21.99366408932452,
        "Longitude(deg)": -103.71483613681245,
        "Mean Anomaly(deg)": 148.12251596349856,
        "RAAN(deg)": 199.999207751682,
        "Satellite Name": "Constellation 1 889",
        "Satellite Number": 889,
        "Semi-Major Axis(m)": 7083131.272910544,
        "Time(s)": 14
    },
    {
        "Altitude(m)": 703202.6700928707,
        "Argument of Periapsis(deg)": 0.0008992200936810842,
        "Eccentricity": 0.0,
        "Inclination(deg)": 45.0,
        "Latitude(deg)": 21.95411935735,
        "Longitude(deg)": -103.66913737723338,
        "Mean Anomaly(deg)": 148.18321710374846,
        "RAAN(deg)": 199.99915116251645,
        "Satellite Name": "Constellation 1 889",
        "Satellite Number": 889,
        "Semi-Major Axis(m)": 7083131.272910544,
        "Time(s)": 15
    },
    {
        "Altitude(m)": 703198.743294154,
        "Argument of Periapsis(deg)": 0.0009591680999264898,
        "Eccentricity": 0.0,
        "Inclination(deg)": 45.0,
        "Latitude(deg)": 21.91455936065736,
        "Longitude(deg)": -103.62346600045241,
        "Mean Anomaly(deg)": 148.24391824399834,
        "RAAN(deg)": 199.99909457335087,
        "Satellite Name": "Constellation 1 889",
        "Satellite Number": 889,
        "Semi-Major Axis(m)": 7083131.272910544,
        "Time(s)": 16
    },
    {
        "Altitude(m)": 703194.8288356984,
        "Argument of Periapsis(deg)": 0.0010191161061718953,
        "Eccentricity": 0.0,
        "Inclination(deg)": 45.0,
        "Latitude(deg)": 21.874984137711117,
        "Longitude(deg)": -103.57782211514434,
        "Mean Anomaly(deg)": 148.3046193842483,
        "RAAN(deg)": 199.99903798418532,
        "Satellite Name": "Constellation 1 889",
        "Satellite Number": 889,
        "Semi-Major Axis(m)": 7083131.272910544,
        "Time(s)": 17
    },
    {
        "Altitude(m)": 703190.9267513851,
        "Argument of Periapsis(deg)": 0.001079064112417301,
        "Eccentricity": 0.0,
        "Inclination(deg)": 45.0,
        "Latitude(deg)": 21.835393726921442,
        "Longitude(deg)": -103.53220566190959,
        "Mean Anomaly(deg)": 148.3653205244982,
        "RAAN(deg)": 199.9989813950197,
        "Satellite Name": "Constellation 1 889",
        "Satellite Number": 889,
        "Semi-Major Axis(m)": 7083131.272910544,
        "Time(s)": 18
    }
]